NORAD_CAT_ID,OBJECT_NAME,OBJECT_TYPE,EPOCH,MEAN_MOTION,ECCENTRICITY,INCLINATION,RA_OF_ASC_NODE,ARG_OF_PERICENTER,MEAN_ANOMALY,BSTAR,MEAN_MOTION_DOT,MEAN_MOTION_DDOT,TLE_LINE0,TLE_LINE1,TLE_LINE2,SEMIMAJOR_AXIS,PERIOD,APOGEE,PERIGEE,DECAYED
54060.0,STARLINK-5169,PAYLOAD,2023-04-26 22:33:29,15.08821878,0.0001004,53.2154,338.0907,88.9104,271.2003,3.1488e-05,2.13e-06,0.0,0 STARLINK-5169,1 54060U 22136K   23116.93991957  .00000213  00000-0  31488-4 0  9998,2 54060  53.2154 338.0907 0001004  88.9104 271.2003 15.08821878 29084,6917.936,95.439,540.495,539.106,0.0
54060.0,STARLINK-5169,PAYLOAD,2023-04-27 20:48:52,15.08857022,0.0001294,53.2162,333.9302,40.0155,320.0932,0.00092418,0.00014458,0.0,0 STARLINK-5169,1 54060U 22136K   23117.86727980  .00014458  00000-0  92418-3 0  9999,2 54060  53.2162 333.9302 0001294  40.0155 320.0932 15.08857022 29705,6917.828,95.436,540.589,538.798,0.0
54060.0,STARLINK-5169,PAYLOAD,2023-04-28 07:56:34,15.08862663,0.0001066,53.2162,331.8471,55.5975,304.5118,0.00060781,9.405e-05,0.0,0 STARLINK-5169,1 54060U 22136K   23118.33095412  .00009405  00000-0  60781-3 0  9994,2 54060  53.2162 331.8471 0001066  55.5975 304.5118 15.08862663 29291,6917.811,95.436,540.414,538.939,0.0
54060.0,STARLINK-5169,PAYLOAD,2023-04-28 20:39:39,15.08861455,0.0001073,53.2158,329.4699,55.2946,304.8147,0.00046082,7.058e-05,0.0,0 STARLINK-5169,1 54060U 22136K   23118.86086982  .00007058  00000-0  46082-3 0  9994,2 54060  53.2158 329.4699 0001073  55.2946 304.8147 15.08861455 29859,6917.815,95.436,540.422,538.938,0.0
54060.0,STARLINK-5169,PAYLOAD,2023-04-28 23:50:25,15.08862833,0.0001052,53.216,328.8734,63.4573,296.6527,0.00057034,8.806e-05,0.0,0 STARLINK-5169,1 54060U 22136K   23118.99334823  .00008806  00000-0  57034-3 0  9999,2 54060  53.2160 328.8734 0001052  63.4573 296.6527 15.08862833 29399,6917.811,95.436,540.403,538.948,0.0
54060.0,STARLINK-5169,PAYLOAD,2023-04-29 18:55:02,15.08856389,0.0001074,53.2166,325.3045,58.3125,301.7972,0.00052457,8.074e-05,0.0,0 STARLINK-5169,1 54060U 22136K   23119.78822495  .00008074  00000-0  52457-3 0  9995,2 54060  53.2166 325.3045 0001074  58.3125 301.7972 15.08856389 29999,6917.83,95.437,540.438,538.952,0.0
54060.0,STARLINK-5169,PAYLOAD,2023-04-30 13:59:40,15.08845522,0.000184,53.2152,321.7352,73.1567,286.9627,6.8547e-05,8.03e-06,0.0,0 STARLINK-5169,1 54060U 22136K   23120.58310808  .00000803  00000-0  68547-4 0  9995,2 54060  53.2152 321.7352 0001840  73.1567 286.9627 15.08845522 30115,6917.864,95.437,541.001,538.456,0.0
54060.0,STARLINK-5169,PAYLOAD,2023-04-30 23:31:59,15.08840505,9.65e-05,53.2161,319.9512,82.6143,277.4958,-1.3505e-05,-5.03e-06,0.0,0 STARLINK-5169,1 54060U 22136K   23120.98054679 -.00000503  00000-0 -13505-4 0  9993,2 54060  53.2161 319.9512 0000965  82.6143 277.4958 15.08840505 29693,6917.879,95.438,540.411,539.076,0.0
54060.0,STARLINK-5169,PAYLOAD,2023-05-01 21:47:23,15.08844342,9.9e-05,53.2175,315.7855,78.8219,281.2885,7.9502e-05,9.78e-06,0.0,0 STARLINK-5169,1 54060U 22136K   23121.90790738  .00000978  00000-0  79502-4 0  9992,2 54060  53.2175 315.7855 0000990  78.8219 281.2885 15.08844342 29832,6917.867,95.437,540.417,539.047,0.0
54060.0,STARLINK-5169,PAYLOAD,2023-05-01 23:22:46,15.0884375,9.55e-05,53.2173,315.4895,82.7483,277.3617,9.9399e-05,1.295e-05,0.0,0 STARLINK-5169,1 54060U 22136K   23121.97414767  .00001295  00000-0  99399-4 0  9993,2 54060  53.2173 315.4895 0000955  82.7483 277.3617 15.08843750 30326,6917.869,95.437,540.395,539.073,0.0
54060.0,STARLINK-5169,PAYLOAD,2023-05-02 12:05:51,15.08838916,9.67e-05,53.2166,313.1113,92.6457,267.4646,0.00019047,2.745e-05,0.0,0 STARLINK-5169,1 54060U 22136K   23122.50407142  .00002745  00000-0  19047-3 0  9994,2 54060  53.2166 313.1113 0000967  92.6457 267.4646 15.08838916 30409,6917.884,95.438,540.418,539.08,0.0
54060.0,STARLINK-5169,PAYLOAD,2023-05-02 20:02:47,15.08846206,9.81e-05,53.2168,311.6244,87.167,272.9434,0.00022506,3.296e-05,0.0,0 STARLINK-5169,1 54060U 22136K   23122.83526794  .00003296  00000-0  22506-3 0  9991,2 54060  53.2168 311.6244 0000981  87.1670 272.9434 15.08846206 29978,6917.861,95.437,540.405,539.048,0.0
54060.0,STARLINK-5169,PAYLOAD,2023-05-03 05:35:06,15.08841885,9.99e-05,53.2169,309.8398,89.3038,270.8068,0.00012055,1.631e-05,0.0,0 STARLINK-5169,1 54060U 22136K   23123.23270910  .00001631  00000-0  12055-3 0  9991,2 54060  53.2169 309.8398 0000999  89.3038 270.8068 15.08841885 30036,6917.875,95.437,540.431,539.049,0.0
54060.0,STARLINK-5169,PAYLOAD,2023-05-03 19:53:34,15.08834307,0.0001015,53.2166,307.1635,90.8012,269.3097,0.00031298,4.696e-05,0.0,0 STARLINK-5169,1 54060U 22136K   23123.82887410  .00004696  00000-0  31298-3 0  9999,2 54060  53.2166 307.1635 0001015  90.8012 269.3097 15.08834307 30606,6917.898,95.438,540.465,539.061,0.0
54060.0,STARLINK-5169,PAYLOAD,2023-05-04 11:47:25,15.08838803,9.92e-05,53.2159,304.1906,86.8489,273.2617,5.2287e-05,5.44e-06,0.0,0 STARLINK-5169,1 54060U 22136K   23124.49127283  .00000544  00000-0  52287-4 0  9998,2 54060  53.2159 304.1906 0000992  86.8489 273.2617 15.08838803 30227,6917.884,95.438,540.435,539.063,0.0
54060.0,STARLINK-5169,PAYLOAD,2023-05-04 18:08:58,15.08842354,9.45e-05,53.216,303.0012,83.9039,276.2061,6.8227e-05,7.98e-06,0.0,0 STARLINK-5169,1 54060U 22136K   23124.75623122  .00000798  00000-0  68227-4 0  9992,2 54060  53.2160 303.0012 0000945  83.9039 276.2061 15.08842354 30268,6917.873,95.437,540.392,539.084,0.0
54060.0,STARLINK-5169,PAYLOAD,2023-05-05 05:16:40,15.08841677,9.27e-05,53.216,300.9197,82.9633,277.1465,5.0641e-05,5.18e-06,0.0,0 STARLINK-5169,1 54060U 22136K   23125.21991200  .00000518  00000-0  50641-4 0  9990,2 54060  53.2160 300.9197 0000927  82.9633 277.1465 15.08841677 30813,6917.875,95.437,540.382,539.099,0.0
54060.0,STARLINK-5169,PAYLOAD,2023-05-05 14:48:58,15.08863898,0.0001246,53.2168,299.1364,73.6939,286.4191,-0.00040918,-6.798e-05,0.0,0 STARLINK-5169,1 54060U 22136K   23125.61734768 -.00006798  00000-0 -40918-3 0  9991,2 54060  53.2168 299.1364 0001246  73.6939 286.4191 15.08863898 30871,6917.807,95.436,540.534,538.81,0.0
54060.0,STARLINK-5169,PAYLOAD,2023-05-05 21:10:31,15.08842114,9.77e-05,53.2167,297.9463,80.9476,279.1627,7.6879e-05,9.36e-06,0.0,0 STARLINK-5169,1 54060U 22136K   23125.88231313  .00000936  00000-0  76879-4 0  9990,2 54060  53.2167 297.9463 0000977  80.9476 279.1627 15.08842114 30919,6917.874,95.437,540.415,539.063,0.0
54060.0,STARLINK-5169,PAYLOAD,2023-05-06 11:29:00,15.08842728,0.0001002,53.2166,295.2695,83.5022,276.6084,9.8699e-05,1.283e-05,0.0,0 STARLINK-5169,1 54060U 22136K   23126.47847383  .00001283  00000-0  98699-4 0  9996,2 54060  53.2166 295.2695 0001002  83.5022 276.6084 15.08842728 30529,6917.872,95.437,540.43,539.044,0.0
54060.0,STARLINK-5169,PAYLOAD,2023-05-06 17:50:32,15.08850947,9.26e-05,53.2163,294.0796,85.0617,275.0481,0.00021017,3.06e-05,0.0,0 STARLINK-5169,1 54060U 22136K   23126.74342624  .00003060  00000-0  21017-3 0  9998,2 54060  53.2163 294.0796 0000926  85.0617 275.0481 15.08850947 31040,6917.847,95.437,540.353,539.071,0.0
54060.0,STARLINK-5169,PAYLOAD,2023-05-07 17:41:20,15.0883847,8.7e-05,53.2174,289.6174,83.8272,276.2819,0.00010537,1.39e-05,0.0,0 STARLINK-5169,1 54060U 22136K   23127.73703734  .00001390  00000-0  10537-3 0  9990,2 54060  53.2174 289.6174 0000870  83.8272 276.2819 15.08838470 31194,6917.885,95.438,540.352,539.148,0.0
54060.0,STARLINK-5169,PAYLOAD,2023-05-08 17:32:07,15.08839695,8.27e-05,53.216,285.1612,94.4804,265.6283,-5.5988e-06,-3.77e-06,0.0,0 STARLINK-5169,1 54060U 22136K   23128.73064082 -.00000377  00000-0 -55988-5 0  9994,2 54060  53.2160 285.1612 0000827  94.4804 265.6283 15.08839695 30868,6917.881,95.438,540.318,539.174,0.0
54060.0,STARLINK-5169,PAYLOAD,2023-05-09 14:12:07,15.08841586,8.57e-05,53.2161,281.2955,102.6541,257.4547,0.00014029,1.946e-05,0.0,0 STARLINK-5169,1 54060U 22136K   23129.59175785  .00001946  00000-0  14029-3 0  9992,2 54060  53.2161 281.2955 0000857 102.6541 257.4547 15.08841586 30997,6917.876,95.437,540.333,539.148,0.0
54060.0,STARLINK-5169,PAYLOAD,2023-05-10 02:55:13,15.08836332,9.09e-05,53.215,278.918,117.3931,242.7153,0.00034289,5.173e-05,0.0,0 STARLINK-5169,1 54060U 22136K   23130.12168169  .00005173  00000-0  34289-3 0  9997,2 54060  53.2150 278.9180 0000909 117.3931 242.7153 15.08836332 31075,6917.892,95.438,540.385,539.128,0.0
54060.0,STARLINK-5169,PAYLOAD,2023-05-10 17:13:41,15.08843124,9.73e-05,53.2171,276.2394,91.1704,268.9399,0.00012141,1.645e-05,0.0,0 STARLINK-5169,1 54060U 22136K   23130.71784005  .00001645  00000-0  12141-3 0  9998,2 54060  53.2171 276.2394 0000973  91.1704 268.9399 15.08843124 31163,6917.871,95.437,540.409,539.063,0.0
54060.0,STARLINK-5169,PAYLOAD,2023-05-11 02:45:59,15.08844401,8.8e-05,53.2165,274.4554,88.4955,271.6138,0.00010432,1.373e-05,0.0,0 STARLINK-5169,1 54060U 22136K   23131.11527723  .00001373  00000-0  10432-3 0  9994,2 54060  53.2165 274.4554 0000880  88.4955 271.6138 15.08844401 31226,6917.867,95.437,540.341,539.123,0.0
54060.0,STARLINK-5169,PAYLOAD,2023-05-11 15:29:05,15.08843682,9.28e-05,53.2165,272.0779,90.6159,269.494,0.00014544,2.028e-05,0.0,0 STARLINK-5169,1 54060U 22136K   23131.64519745  .00002028  00000-0  14544-3 0  9993,2 54060  53.2165 272.0779 0000928  90.6159 269.4940 15.08843682 31780,6917.869,95.437,540.376,539.092,0.0
54060.0,STARLINK-5169,PAYLOAD,2023-05-12 15:19:52,15.08832333,0.0001034,53.2162,267.6215,80.6509,279.46,0.00020559,2.985e-05,0.0,0 STARLINK-5169,1 54060U 22136K   23132.63880490  .00002985  00000-0  20559-3 0  9996,2 54060  53.2162 267.6215 0001034  80.6509 279.4600 15.08832333 31931,6917.904,95.438,540.484,539.054,0.0
54060.0,STARLINK-5169,PAYLOAD,2023-05-13 13:35:15,15.08844924,0.0001054,53.2166,263.4518,88.6951,271.4162,7.4337e-05,8.96e-06,0.0,0 STARLINK-5169,1 54060U 22136K   23133.56615604  .00000896  00000-0  74337-4 0  9995,2 54060  53.2166 263.4518 0001054  88.6951 271.4162 15.08844924 31592,6917.865,95.437,540.459,539.001,0.0
